[{"OBJECT_NAME":"CHUANGXIN-3 (CX-3)","OBJECT_ID":"2013-037B","EPOCH":"2026-03-09T23:41:48.559776","MEAN_MOTION":14.74394744,"ECCENTRICITY":0.00055411,"INCLINATION":98.084,"RA_OF_ASC_NODE":75.4374,"ARG_OF_PERICENTER":91.0798,"MEAN_ANOMALY":269.1045,"EPHEMERIS_TYPE":0,"CLASSIFICATION_TYPE":"U","NORAD_CAT_ID":39209,"ELEMENT_SET_NO":999,"REV_AT_EPOCH":67773,"BSTAR":0.00024158213,"MEAN_MOTION_DOT":1.551e-5,"MEAN_MOTION_DDOT":0},{"OBJECT_NAME":"COSMOS 2251 DEB","OBJECT_ID":"1993-036AQM","EPOCH":"2026-03-08T05:51:55.253664","MEAN_MOTION":14.60214428,"ECCENTRICITY":0.00901733,"INCLINATION":73.9949,"RA_OF_ASC_NODE":30.5608,"ARG_OF_PERICENTER":212.1976,"MEAN_ANOMALY":212.7999,"EPHEMERIS_TYPE":0,"CLASSIFICATION_TYPE":"U","NORAD_CAT_ID":35716,"ELEMENT_SET_NO":999,"REV_AT_EPOCH":88875,"BSTAR":0.00016059898,"MEAN_MOTION_DOT":7.86e-6,"MEAN_MOTION_DDOT":0}]
